{"type": "FeatureCollection", "features": [ {"type": "Feature", "properties": {"norad_id": 37867, "name": "COSMOS 2476 (744)", "group": "gnss", "lat": 3.2729735050876765, "lon": 80.20753302873364, "alt_km": 19168.888807452528, "timestamp": "2025-12-27T05:29:39.445036+00:00", "meta": {"OBJECT_NAME": "COSMOS 2476 (744)", "OBJECT_ID": "2011-064A", "EPOCH": "2025-12-26T10:11:25.907424", "MEAN_MOTION": 2.13103879, "ECCENTRICITY": 0.0024578, "INCLINATION": 65.169, "RA_OF_ASC_NODE": 78.7087, "ARG_OF_PERICENTER": 235.1101, "MEAN_ANOMALY": 231.2674, "EPHEMERIS_TYPE": 0, "CLASSIFICATION_TYPE": "U", "NORAD_CAT_ID": 37867, "ELEMENT_SET_NO": 999, "REV_AT_EPOCH": 11008, "BSTAR": 0, "MEAN_MOTION_DOT": -7e-08, "MEAN_MOTION_DDOT": 0}, "tle": {"line1": "1 37867U 11064A   25360.42460541 -.00000007  00000+0  00000+0 0  9991", "line2": "2 37867  65.1690  78.7087 0024578 235.1101 231.2674  2.13103879110085"}}, "geometry": {"type": "Point", "coordinates": [80.20753302873364, 3.2729735050876765]}}, {"type": "Feature", "properties": {"norad_id": 37868, "name": "COSMOS 2477 (745)", "group": "gnss", "lat": -3.7544076975173724, "lon": -99.49192219692213, "alt_km": 19096.36957149459, "timestamp": "2025-12-27T05:29:39.445049+00:00", "meta": {"OBJECT_NAME": "COSMOS 2477 (745)", "OBJECT_ID": "2011-064B", "EPOCH": "2025-12-24T15:22:57.950400", "MEAN_MOTION": 2.13103036, "ECCENTRICITY": 0.00215718, "INCLINATION": 65.1748, "RA_OF_ASC_NODE": 78.8466, "ARG_OF_PERICENTER": 235.4688, "MEAN_ANOMALY": 123.4303, "EPHEMERIS_TYPE": 0, "CLASSIFICATION_TYPE": "U", "NORAD_CAT_ID": 37868, "ELEMENT_SET_NO": 999, "REV_AT_EPOCH": 11003, "BSTAR": 0, "MEAN_MOTION_DOT": 1e-08, "MEAN_MOTION_DDOT": 0}, "tle": {"line1": "1 37868U 11064B   25358.64094850  .00000001  00000+0  00000+0 0  9992", "line2": "2 37868  65.1748  78.8466 0021571 235.4688 123.4303  2.13103036110036"}}, "geometry": {"type": "Point", "coordinates": [-99.49192219692213, -3.7544076975173724]}}, {"type": "Feature", "properties": {"norad_id": 37869, "name": "COSMOS 2475 (743)", "group": "gnss", "lat": 35.777796132578445, "lon": -120.65981975483099, "alt_km": 19148.306117344167, "timestamp": "2025-12-27T05:29:39.445061+00:00", "meta": {"OBJECT_NAME": "COSMOS 2475 (743)", "OBJECT_ID": "2011-064C", "EPOCH": "2025-12-26T02:48:59.782176", "MEAN_MOTION": 2.13101658, "ECCENTRICITY": 0.00268162, "INCLINATION": 65.1822, "RA_OF_ASC_NODE": 78.8169, "ARG_OF_PERICENTER": 249.2724, "MEAN_ANOMALY": 118.1607, "EPHEMERIS_TYPE": 0, "CLASSIFICATION_TYPE": "U", "NORAD_CAT_ID": 37869, "ELEMENT_SET_NO": 999, "REV_AT_EPOCH": 11008, "BSTAR": 0, "MEAN_MOTION_DOT": -5e-08, "MEAN_MOTION_DDOT": 0}, "tle": {"line1": "1 37869U 11064C   25360.11735859 -.00000005  00000+0  00000+0 0  9994", "line2": "2 37869  65.1822  78.8169 0026816 249.2724 118.1607  2.13101658110082"}}, "geometry": {"type": "Point", "coordinates": [-120.65981975483099, 35.777796132578445]}}, {"type": "Feature", "properties": {"norad_id": 37948, "name": "BEIDOU-2 IGSO-5 (C10)", "group": "gnss", "lat": -0.5498817244312961, "lon": -86.81491113695994, "alt_km": 36119.62245023749, "timestamp": "2025-12-27T05:29:39.445074+00:00", "meta": {"OBJECT_NAME": "BEIDOU-2 IGSO-5 (C10)", "OBJECT_ID": "2011-073A", "EPOCH": "2025-12-26T17:38:23.606880", "MEAN_MOTION": 1.00287779, "ECCENTRICITY": 0.01096357, "INCLINATION": 47.994, "RA_OF_ASC_NODE": 273.6869, "ARG_OF_PERICENTER": 222.0715, "MEAN_ANOMALY": 318.062, "EPHEMERIS_TYPE": 0, "CLASSIFICATION_TYPE": "U", "NORAD_CAT_ID": 37948, "ELEMENT_SET_NO": 999, "REV_AT_EPOCH": 5140, "BSTAR": 0, "MEAN_MOTION_DOT": -1.46e-06, "MEAN_MOTION_DDOT": 0}, "tle": {"line1": "1 37948U 11073A   25360.73499545 -.00000146  00000+0  00000+0 0  9995", "line2": "2 37948  47.9940 273.6869 0109635 222.0715 318.0620  1.00287779 51401"}}, "geometry": {"type": "Point", "coordinates": [-86.81491113695994, -0.5498817244312961]}}, {"type": "Feature", "properties": {"norad_id": 37951, "name": "LUCH 5A (SDCM/PRN 140)", "group": "gnss", "lat": -8.325604443263495, "lon": -14.574603573577791, "alt_km": 35782.493566593796, "timestamp": "2025-12-27T05:29:39.445094+00:00", "meta": {"OBJECT_NAME": "LUCH 5A (SDCM/PRN 140)", "OBJECT_ID": "2011-074B", "EPOCH": "2025-12-26T22:23:21.295104", "MEAN_MOTION": 1.0026885, "ECCENTRICITY": 0.00053417, "INCLINATION": 8.3138, "RA_OF_ASC_NODE": 76.3746, "ARG_OF_PERICENTER": 193.0626, "MEAN_ANOMALY": 329.0752, "EPHEMERIS_TYPE": 0, "CLASSIFICATION_TYPE": "U", "NORAD_CAT_ID": 37951, "ELEMENT_SET_NO": 999, "REV_AT_EPOCH": 5132, "BSTAR": 0, "MEAN_MOTION_DOT": -3.1e-07, "MEAN_MOTION_DDOT": 0}, "tle": {"line1": "1 37951U 11074B   25360.93288536 -.00000031  00000+0  00000+0 0  9991", "line2": "2 37951   8.3138  76.3746 0005341 193.0626 329.0752  1.00268850 51322"}}, "geometry": {"type": "Point", "coordinates": [-14.574603573577791, -8.325604443263495]}}, {"type": "Feature", "properties": {"norad_id": 38091, "name": "BEIDOU-2 G5 (C05)", "group": "gnss", "lat": 0.7321434128173775, "lon": -123.02586391181013, "alt_km": 35763.38750859129, "timestamp": "2025-12-27T05:29:39.445106+00:00", "meta": {"OBJECT_NAME": "BEIDOU-2 G5 (C05)", "OBJECT_ID": "2012-008A", "EPOCH": "2025-12-26T21:52:22.760256", "MEAN_MOTION": 1.00270196, "ECCENTRICITY": 0.00131837, "INCLINATION": 3.1422, "RA_OF_ASC_NODE": 70.6566, "ARG_OF_PERICENTER": 232.1366, "MEAN_ANOMALY": 179.6724, "EPHEMERIS_TYPE": 0, "CLASSIFICATION_TYPE": "U", "NORAD_CAT_ID": 38091, "ELEMENT_SET_NO": 999, "REV_AT_EPOCH": 5064, "BSTAR": 0, "MEAN_MOTION_DOT": 7.8e-07, "MEAN_MOTION_DDOT": 0}, "tle": {"line1": "1 38091U 12008A   25360.91137454  .00000078  00000+0  00000+0 0  9995", "line2": "2 38091   3.1422  70.6566 0013183 232.1366 179.6724  1.00270196 50641"}}, "geometry": {"type": "Point", "coordinates": [-123.02586391181013, 0.7321434128173775]}}, {"type": "Feature", "properties": {"norad_id": 38250, "name": "BEIDOU-2 M3 (C11)", "group": "gnss", "lat": -55.912959934999975, "lon": -138.5225291873555, "alt_km": 21467.206001134073, "timestamp": "2025-12-27T05:29:39.445118+00:00", "meta": {"OBJECT_NAME": "BEIDOU-2 M3 (C11)", "OBJECT_ID": "2012-018A", "EPOCH": "2025-12-26T06:54:56.796768", "MEAN_MOTION": 1.86230094, "ECCENTRICITY": 0.002406, "INCLINATION": 55.9085, "RA_OF_ASC_NODE": 310.7027, "ARG_OF_PERICENTER": 275.5278, "MEAN_ANOMALY": 84.2034, "EPHEMERIS_TYPE": 0, "CLASSIFICATION_TYPE": "U", "NORAD_CAT_ID": 38250, "ELEMENT_SET_NO": 999, "REV_AT_EPOCH": 9272, "BSTAR": 0, "MEAN_MOTION_DOT": -5.6e-07, "MEAN_MOTION_DDOT": 0}, "tle": {"line1": "1 38250U 12018A   25360.28815737 -.00000056  00000+0  00000+0 0  9997", "line2": "2 38250  55.9085 310.7027 0024060 275.5278  84.2034  1.86230094 92724"}}, "geometry": {"type": "Point", "coordinates": [-138.5225291873555, -55.912959934999975]}}, {"type": "Feature", "properties": {"norad_id": 38251, "name": "BEIDOU-2 M4 (C12)", "group": "gnss", "lat": -34.92108837887253, "lon": -78.42194557500885, "alt_km": 21498.363652103573, "timestamp": "2025-12-27T05:29:39.445133+00:00", "meta": {"OBJECT_NAME": "BEIDOU-2 M4 (C12)", "OBJECT_ID": "2012-018B", "EPOCH": "2025-12-26T05:17:08.086272", "MEAN_MOTION": 1.86229697, "ECCENTRICITY": 0.0015168, "INCLINATION": 55.8099, "RA_OF_ASC_NODE": 309.9329, "ARG_OF_PERICENTER": 279.7877, "MEAN_ANOMALY": 80.0472, "EPHEMERIS_TYPE": 0, "CLASSIFICATION_TYPE": "U", "NORAD_CAT_ID": 38251, "ELEMENT_SET_NO": 999, "REV_AT_EPOCH": 9272, "BSTAR": 0, "MEAN_MOTION_DOT": -5.5e-07, "MEAN_MOTION_DDOT": 0}, "tle": {"line1": "1 38251U 12018B   25360.22023248 -.00000055  00000+0  00000+0 0  9999", "line2": "2 38251  55.8099 309.9329 0015168 279.7877  80.0472  1.86229697 92721"}}, "geometry": {"type": "Point", "coordinates": [-78.42194557500885, -34.92108837887253]}}, {"type": "Feature", "properties": {"norad_id": 38652, "name": "SES-5 (EGNOS/PRN 136)", "group": "gnss", "lat": -0.04427875372271785, "lon": -176.6845116093532, "alt_km": 35787.57588115652, "timestamp": "2025-12-27T05:29:39.445147+00:00", "meta": {"OBJECT_NAME": "SES-5 (EGNOS/PRN 136)", "OBJECT_ID": "2012-036A", "EPOCH": "2025-12-26T08:51:38.739168", "MEAN_MOTION": 1.00269218, "ECCENTRICITY": 0.0001956, "INCLINATION": 0.0564, "RA_OF_ASC_NODE": 306.7412, "ARG_OF_PERICENTER": 332.3205, "MEAN_ANOMALY": 313.9407, "EPHEMERIS_TYPE": 0, "CLASSIFICATION_TYPE": "U", "NORAD_CAT_ID": 38652, "ELEMENT_SET_NO": 999, "REV_AT_EPOCH": 4272, "BSTAR": 0, "MEAN_MOTION_DOT": 5.5e-07, "MEAN_MOTION_DDOT": 0}, "tle": {"line1": "1 38652U 12036A   25360.36919837  .00000055  00000+0  00000+0 0  9996", "line2": "2 38652   0.0564 306.7412 0001956 332.3205 313.9407  1.00269218 42724"}}, "geometry": {"type": "Point", "coordinates": [-176.6845116093532, -0.04427875372271785]}}, {"type": "Feature", "properties": {"norad_id": 38775, "name": "BEIDOU-2 M6 (C14)", "group": "gnss", "lat": 24.46097411394835, "lon": -128.9866410175921, "alt_km": 21556.34420492727, "timestamp": "2025-12-27T05:29:39.445161+00:00", "meta": {"OBJECT_NAME": "BEIDOU-2 M6 (C14)", "OBJECT_ID": "2012-050B", "EPOCH": "2025-12-24T07:41:05.368128", "MEAN_MOTION": 1.86230801, "ECCENTRICITY": 0.00114872, "INCLINATION": 56.388, "RA_OF_ASC_NODE": 68.6832, "ARG_OF_PERICENTER": 343.1884, "MEAN_ANOMALY": 16.8281, "EPHEMERIS_TYPE": 0, "CLASSIFICATION_TYPE": "U", "NORAD_CAT_ID": 38775, "ELEMENT_SET_NO": 999, "REV_AT_EPOCH": 9005, "BSTAR": 0, "MEAN_MOTION_DOT": -2.4e-07, "MEAN_MOTION_DDOT": 0}, "tle": {"line1": "1 38775U 12050B   25358.32020102 -.00000024  00000+0  00000+0 0  9996", "line2": "2 38775  56.3880  68.6832 0011487 343.1884  16.8281  1.86230801 90056"}}, "geometry": {"type": "Point", "coordinates": [-128.9866410175921, 24.46097411394835]}}]}